1 44387U 19038A   19282.04301694 -.00000024  00000-0  85466-5 0  9997
2 44387  98.5797 242.6494 0001845 134.0563 226.0767 14.23334536 13620
1 44387U 19038A   19282.18361181 -.00000018  00000-0  10822-4 0  9995
2 44387  98.5815 242.7899 0002157 133.7972 226.3385 14.23334649 13644
1 44387U 19038A   19282.46480159 -.00000025  00000-0  80295-5 0  9993
2 44387  98.5815 243.0642 0002167 133.2557 226.8803 14.23334647 13681
1 44387U 19038A   19282.53509903 -.00000033  00000-0  41425-5 0  9991
2 44387  98.5800 243.1296 0001896 133.1809 226.9512 14.23334397 13699
1 44387U 19038A   19282.60539647 -.00000031  00000-0  51123-5 0  9991
2 44387  98.5800 243.1983 0001981 134.2007 225.9321 14.23334405 13708
1 44387U 19038A   19282.74599136 -.00000032  00000-0  49298-5 0  9996
2 44387  98.5801 243.3354 0002013 133.8245 226.3087 14.23334404 13724
1 44387U 19038A   19282.88658621 -.00000029  00000-0  61708-5 0  9992
2 44387  98.5802 243.4728 0002050 134.9599 225.1742 14.23334454 13748
1 44387U 19038A   19282.88658622 -.00000032  00000-0  47157-5 0  9999
2 44387  98.5815 243.4755 0002180 132.5582 227.5781 14.23334648 13746
1 44387U 19038A   19283.16777597 -.00000032  00000-0  49286-5 0  9999
2 44387  98.5816 243.7498 0002194 131.9970 228.1395 14.23334656 13784
1 44387U 19038A   19283.37866827 -.00000029  00000-0  61546-5 0  9996
2 44387  98.5817 243.9554 0002206 131.6094 228.5274 14.23334690 13810
1 44387U 19038A   19283.73015544 -.00000029  00000-0  63506-5 0  9996
2 44387  98.5817 244.2982 0002217 130.9532 229.1839 14.23334695 13864
1 44387U 19038A   19283.80045287 -.00000029  00000-0  61405-5 0  9997
2 44387  98.5817 244.3668 0002220 130.8327 229.3044 14.23334702 13871
1 44387U 19038A   19283.87075030 -.00000029 +00000-0 +60267-5 0  9998
2 44387 098.5817 244.4353 0002222 130.7224 229.4148 14.23334709013884
